{
  "type": "FeatureCollection",
  "features": [
    {
      "type": "Feature",
      "properties": {
        "norad_id": 66488,
        "name": "STARLINK-35515",
        "group": "last-30-days",
        "lat": 7.201853288681308,
        "lon": 141.9077472742125,
        "alt_km": 414.0477113179959,
        "timestamp": "2025-12-11T05:00:25.074519+00:00",
        "meta_object_name": "STARLINK-35515",
        "meta_object_id": "2025-263D",
        "meta_epoch": "2025-12-10T22:00:03.000096",
        "meta_mean_motion": 15.50613371,
        "meta_eccentricity": 0.00015014,
        "meta_inclination": 43.0006,
        "meta_ra_of_asc_node": 135.8223,
        "meta_arg_of_pericenter": 268.9385,
        "meta_mean_anomaly": 270.2283,
        "meta_ephemeris_type": 0,
        "meta_classification_type": "U",
        "meta_norad_cat_id": 66488,
        "meta_element_set_no": 999,
        "meta_rev_at_epoch": 534,
        "meta_bstar": -0.0015285818,
        "meta_mean_motion_dot": -0.00089112,
        "meta_mean_motion_ddot": 0,
        "tle_line1": "1 66488U 25263D   25344.91670139 -.00089112  00000+0 -15286-2 0  9990",
        "tle_line2": "2 66488  43.0006 135.8223 0001501 268.9385 270.2283 15.50613371  5347"
      },
      "geometry": {
        "type": "Point",
        "coordinates": [
          141.9077472742125,
          7.201853288681308
        ]
      }
    },
    {
      "type": "Feature",
      "properties": {
        "norad_id": 66489,
        "name": "STARLINK-35696",
        "group": "last-30-days",
        "lat": 8.494816403628178,
        "lon": 143.33245608303164,
        "alt_km": 413.8609146434728,
        "timestamp": "2025-12-11T05:00:25.074529+00:00",
        "meta_object_name": "STARLINK-35696",
        "meta_object_id": "2025-263E",
        "meta_epoch": "2025-12-10T22:00:03.000096",
        "meta_mean_motion": 15.50604881,
        "meta_eccentricity": 0.00014483,
        "meta_inclination": 43.0006,
        "meta_ra_of_asc_node": 135.8173,
        "meta_arg_of_pericenter": 270.9474,
        "meta_mean_anomaly": 270.1429,
        "meta_ephemeris_type": 0,
        "meta_classification_type": "U",
        "meta_norad_cat_id": 66489,
        "meta_element_set_no": 999,
        "meta_rev_at_epoch": 534,
        "meta_bstar": -0.0013629485,
        "meta_mean_motion_dot": -0.00079565,
        "meta_mean_motion_ddot": 0,
        "tle_line1": "1 66489U 25263E   25344.91670139 -.00079565  00000+0 -13629-2 0  9991",
        "tle_line2": "2 66489  43.0006 135.8173 0001448 270.9474 270.1429 15.50604881  5341"
      },
      "geometry": {
        "type": "Point",
        "coordinates": [
          143.33245608303164,
          8.494816403628178
        ]
      }
    },
    {
      "type": "Feature",
      "properties": {
        "norad_id": 66490,
        "name": "STARLINK-35693",
        "group": "last-30-days",
        "lat": 1.9479007765665324,
        "lon": 136.22415030061075,
        "alt_km": 429.95680025439924,
        "timestamp": "2025-12-11T05:00:25.074543+00:00",
        "meta_object_name": "STARLINK-35693",
        "meta_object_id": "2025-263F",
        "meta_epoch": "2025-12-10T22:00:03.000096",
        "meta_mean_motion": 15.46484102,
        "meta_eccentricity": 0.00013047,
        "meta_inclination": 43.0005,
        "meta_ra_of_asc_node": 135.8283,
        "meta_arg_of_pericenter": 288.5393,
        "meta_mean_anomaly": 247.8845,
        "meta_ephemeris_type": 0,
        "meta_classification_type": "U",
        "meta_norad_cat_id": 66490,
        "meta_element_set_no": 999,
        "meta_rev_at_epoch": 534,
        "meta_bstar": -0.043707008,
        "meta_mean_motion_dot": -0.01983336,
        "meta_mean_motion_ddot": 0,
        "tle_line1": "1 66490U 25263F   25344.91670139 -.01983336  00000+0 -43707-1 0  9993",
        "tle_line2": "2 66490  43.0005 135.8283 0001304 288.5393 247.8845 15.46484102  5340"
      },
      "geometry": {
        "type": "Point",
        "coordinates": [
          136.22415030061075,
          1.9479007765665324
        ]
      }
    },
    {
      "type": "Feature",
      "properties": {
        "norad_id": 66491,
        "name": "STARLINK-35663",
        "group": "last-30-days",
        "lat": 12.338984448613074,
        "lon": 147.6710830487235,
        "alt_km": 413.45236283327176,
        "timestamp": "2025-12-11T05:00:25.074553+00:00",
        "meta_object_name": "STARLINK-35663",
        "meta_object_id": "2025-263G",
        "meta_epoch": "2025-12-10T22:00:03.000096",
        "meta_mean_motion": 15.50601514,
        "meta_eccentricity": 0.00014752,
        "meta_inclination": 43.0006,
        "meta_ra_of_asc_node": 135.8026,
        "meta_arg_of_pericenter": 267.605,
        "meta_mean_anomaly": 279.2387,
        "meta_ephemeris_type": 0,
        "meta_classification_type": "U",
        "meta_norad_cat_id": 66491,
        "meta_element_set_no": 999,
        "meta_rev_at_epoch": 534,
        "meta_bstar": -0.0013035928,
        "meta_mean_motion_dot": -0.00076139,
        "meta_mean_motion_ddot": 0,
        "tle_line1": "1 66491U 25263G   25344.91670139 -.00076139  00000+0 -13036-2 0  9990",
        "tle_line2": "2 66491  43.0006 135.8026 0001475 267.6050 279.2387 15.50601514  5347"
      },
      "geometry": {
        "type": "Point",
        "coordinates": [
          147.6710830487235,
          12.338984448613074
        ]
      }
    },
    {
      "type": "Feature",
      "properties": {
        "norad_id": 66492,
        "name": "STARLINK-35673",
        "group": "last-30-days",
        "lat": -9.540094523360182,
        "lon": 123.78290560781463,
        "alt_km": 442.6798888753747,
        "timestamp": "2025-12-11T05:00:25.074563+00:00",
        "meta_object_name": "STARLINK-35673",
        "meta_object_id": "2025-263H",
        "meta_epoch": "2025-12-10T22:00:03.000096",
        "meta_mean_motion": 15.42651874,
        "meta_eccentricity": 0.00014305,
        "meta_inclination": 43.0005,
        "meta_ra_of_asc_node": 135.8589,
        "meta_arg_of_pericenter": 276.4858,
        "meta_mean_anomaly": 247.0696,
        "meta_ephemeris_type": 0,
        "meta_classification_type": "U",
        "meta_norad_cat_id": 66492,
        "meta_element_set_no": 999,
        "meta_rev_at_epoch": 534,
        "meta_bstar": -0.051512528,
        "meta_mean_motion_dot": -0.02041528,
        "meta_mean_motion_ddot": 0,
        "tle_line1": "1 66492U 25263H   25344.91670139 -.02041528  00000+0 -51513-1 0  9998",
        "tle_line2": "2 66492  43.0005 135.8589 0001430 276.4858 247.0696 15.42651874  5347"
      },
      "geometry": {
        "type": "Point",
        "coordinates": [
          123.78290560781463,
          -9.540094523360182
        ]
      }
    },
    {
      "type": "Feature",
      "properties": {
        "norad_id": 66493,
        "name": "STARLINK-35597",
        "group": "last-30-days",
        "lat": 14.866196437212096,
        "lon": 150.6347846053259,
        "alt_km": 413.1195779347554,
        "timestamp": "2025-12-11T05:00:25.074573+00:00",
        "meta_object_name": "STARLINK-35597",
        "meta_object_id": "2025-263J",
        "meta_epoch": "2025-12-10T22:00:03.000096",
        "meta_mean_motion": 15.50620252,
        "meta_eccentricity": 0.00014245,
        "meta_inclination": 43.0006,
        "meta_ra_of_asc_node": 135.7925,
        "meta_arg_of_pericenter": 267.1157,
        "meta_mean_anomaly": 283.5549,
        "meta_ephemeris_type": 0,
        "meta_classification_type": "U",
        "meta_norad_cat_id": 66493,
        "meta_element_set_no": 999,
        "meta_rev_at_epoch": 534,
        "meta_bstar": -0.0017923063,
        "meta_mean_motion_dot": -0.00104252,
        "meta_mean_motion_ddot": 0,
        "tle_line1": "1 66493U 25263J   25344.91670139 -.00104252  00000+0 -17923-2 0  9999",
        "tle_line2": "2 66493  43.0006 135.7925 0001424 267.1157 283.5549 15.50620252  5341"
      },
      "geometry": {
        "type": "Point",
        "coordinates": [
          150.6347846053259,
          14.866196437212096
        ]
      }
    },
    {
      "type": "Feature",
      "properties": {
        "norad_id": 66494,
        "name": "STARLINK-35689",
        "group": "last-30-days",
        "lat": 11.066460456644165,
        "lon": 146.2153382632905,
        "alt_km": 413.58459784663046,
        "timestamp": "2025-12-11T05:00:25.074583+00:00",
        "meta_object_name": "STARLINK-35689",
        "meta_object_id": "2025-263K",
        "meta_epoch": "2025-12-10T22:00:03.000096",
        "meta_mean_motion": 15.50618921,
        "meta_eccentricity": 0.0001394,
        "meta_inclination": 43.0006,
        "meta_ra_of_asc_node": 135.8077,
        "meta_arg_of_pericenter": 268.3199,
        "meta_mean_anomaly": 276.6016,
        "meta_ephemeris_type": 0,
        "meta_classification_type": "U",
        "meta_norad_cat_id": 66494,
        "meta_element_set_no": 999,
        "meta_rev_at_epoch": 534,
        "meta_bstar": -0.0018058351,
        "meta_mean_motion_dot": -0.00105021,
        "meta_mean_motion_ddot": 0,
        "tle_line1": "1 66494U 25263K   25344.91670139 -.00105021  00000+0 -18058-2 0  9995",
        "tle_line2": "2 66494  43.0006 135.8077 0001394 268.3199 276.6016 15.50618921  5348"
      },
      "geometry": {
        "type": "Point",
        "coordinates": [
          146.2153382632905,
          11.066460456644165
        ]
      }
    }
  ]
}